{"type": "FeatureCollection", "features": [ {"type": "Feature", "properties": {"norad_id": 41019, "name": "GPS BIIF-11 (PRN 10)", "group": "gnss", "lat": 6.733370031585335, "lon": -146.050530323393, "alt_km": 20021.949698826327, "timestamp": "2025-12-03T13:52:09.804202+00:00", "meta": {"OBJECT_NAME": "GPS BIIF-11 (PRN 10)", "OBJECT_ID": "2015-062A", "EPOCH": "2025-12-01T20:11:25.978560", "MEAN_MOTION": 2.00566903, "ECCENTRICITY": 0.01105097, "INCLINATION": 56.8244, "RA_OF_ASC_NODE": 38.424, "ARG_OF_PERICENTER": 229.6519, "MEAN_ANOMALY": 129.4268, "EPHEMERIS_TYPE": 0, "CLASSIFICATION_TYPE": "U", "NORAD_CAT_ID": 41019, "ELEMENT_SET_NO": 999, "REV_AT_EPOCH": 7387, "BSTAR": 0, "MEAN_MOTION_DOT": -6.5e-07, "MEAN_MOTION_DDOT": 0}, "tle": {"line1": "1 41019U 15062A   25335.84127290 -.00000065  00000+0  00000+0 0  9990", "line2": "2 41019  56.8244  38.4240 0110509 229.6519 129.4268  2.00566903 73875"}}, "geometry": {"type": "Point", "coordinates": [-146.050530323393, 6.733370031585335]}}, {"type": "Feature", "properties": {"norad_id": 41028, "name": "GSAT-15 (GAGAN/PRN 139)", "group": "gnss", "lat": 0.005915426843403685, "lon": 14.200126363033627, "alt_km": 35795.86874857818, "timestamp": "2025-12-03T13:52:09.804214+00:00", "meta": {"OBJECT_NAME": "GSAT-15 (GAGAN/PRN 139)", "OBJECT_ID": "2015-065A", "EPOCH": "2025-12-03T07:21:08.652960", "MEAN_MOTION": 1.0027202, "ECCENTRICITY": 0.00029792, "INCLINATION": 0.0284, "RA_OF_ASC_NODE": 83.2334, "ARG_OF_PERICENTER": 149.6615, "MEAN_ANOMALY": 43.2861, "EPHEMERIS_TYPE": 0, "CLASSIFICATION_TYPE": "U", "NORAD_CAT_ID": 41028, "ELEMENT_SET_NO": 999, "REV_AT_EPOCH": 3683, "BSTAR": 0, "MEAN_MOTION_DOT": -2.39e-06, "MEAN_MOTION_DDOT": 0}, "tle": {"line1": "1 41028U 15065A   25337.30635015 -.00000239  00000+0  00000+0 0  9998", "line2": "2 41028   0.0284  83.2334 0002979 149.6615  43.2861  1.00272020 36831"}}, "geometry": {"type": "Point", "coordinates": [14.200126363033627, 0.005915426843403685]}}, {"type": "Feature", "properties": {"norad_id": 41174, "name": "GSAT0209 (GALILEO 12)", "group": "gnss", "lat": -54.15404641467707, "lon": 35.86459750765292, "alt_km": 23226.33714686113, "timestamp": "2025-12-03T13:52:09.804226+00:00", "meta": {"OBJECT_NAME": "GSAT0209 (GALILEO 12)", "OBJECT_ID": "2015-079A", "EPOCH": "2025-12-01T22:43:10.411392", "MEAN_MOTION": 1.70474306, "ECCENTRICITY": 0.0002352, "INCLINATION": 55.7062, "RA_OF_ASC_NODE": 106.6773, "ARG_OF_PERICENTER": 357.4206, "MEAN_ANOMALY": 2.5431, "EPHEMERIS_TYPE": 0, "CLASSIFICATION_TYPE": "U", "NORAD_CAT_ID": 41174, "ELEMENT_SET_NO": 999, "REV_AT_EPOCH": 6141, "BSTAR": 0, "MEAN_MOTION_DOT": 3.5e-07, "MEAN_MOTION_DDOT": 0}, "tle": {"line1": "1 41174U 15079A   25335.94664828  .00000035  00000+0  00000+0 0  9990", "line2": "2 41174  55.7062 106.6773 0002352 357.4206   2.5431  1.70474306 61412"}}, "geometry": {"type": "Point", "coordinates": [35.86459750765292, -54.15404641467707]}}, {"type": "Feature", "properties": {"norad_id": 41175, "name": "GSAT0208 (GALILEO 11)", "group": "gnss", "lat": 27.444536259702293, "lon": -94.13691053923613, "alt_km": 23222.878714658513, "timestamp": "2025-12-03T13:52:09.804237+00:00", "meta": {"OBJECT_NAME": "GSAT0208 (GALILEO 11)", "OBJECT_ID": "2015-079B", "EPOCH": "2025-12-02T18:04:51.780576", "MEAN_MOTION": 1.70474153, "ECCENTRICITY": 0.00018919, "INCLINATION": 55.7052, "RA_OF_ASC_NODE": 106.6523, "ARG_OF_PERICENTER": 10.0407, "MEAN_ANOMALY": 349.9226, "EPHEMERIS_TYPE": 0, "CLASSIFICATION_TYPE": "U", "NORAD_CAT_ID": 41175, "ELEMENT_SET_NO": 999, "REV_AT_EPOCH": 6184, "BSTAR": 0, "MEAN_MOTION_DOT": 2.7e-07, "MEAN_MOTION_DDOT": 0}, "tle": {"line1": "1 41175U 15079B   25336.75337709  .00000027  00000+0  00000+0 0  9997", "line2": "2 41175  55.7052 106.6523 0001891  10.0407 349.9226  1.70474153 61844"}}, "geometry": {"type": "Point", "coordinates": [-94.13691053923613, 27.444536259702293]}}, {"type": "Feature", "properties": {"norad_id": 41241, "name": "IRNSS-1E", "group": "gnss", "lat": -15.724224567215312, "lon": 36.695374769019764, "alt_km": 35861.36549794249, "timestamp": "2025-12-03T13:52:09.804249+00:00", "meta": {"OBJECT_NAME": "IRNSS-1E", "OBJECT_ID": "2016-003A", "EPOCH": "2025-12-02T15:46:14.293632", "MEAN_MOTION": 1.00278203, "ECCENTRICITY": 0.00219463, "INCLINATION": 32.8036, "RA_OF_ASC_NODE": 62.6001, "ARG_OF_PERICENTER": 186.4596, "MEAN_ANOMALY": 170.9534, "EPHEMERIS_TYPE": 0, "CLASSIFICATION_TYPE": "U", "NORAD_CAT_ID": 41241, "ELEMENT_SET_NO": 999, "REV_AT_EPOCH": 3610, "BSTAR": 0, "MEAN_MOTION_DOT": -3.03e-06, "MEAN_MOTION_DDOT": 0}, "tle": {"line1": "1 41241U 16003A   25336.65710988 -.00000303  00000+0  00000+0 0  9990", "line2": "2 41241  32.8036  62.6001 0021946 186.4596 170.9534  1.00278203 36104"}}, "geometry": {"type": "Point", "coordinates": [36.695374769019764, -15.724224567215312]}}, {"type": "Feature", "properties": {"norad_id": 41328, "name": "GPS BIIF-12 (PRN 32)", "group": "gnss", "lat": 49.359145536299025, "lon": -136.26080545068058, "alt_km": 20333.08762352704, "timestamp": "2025-12-03T13:52:09.804262+00:00", "meta": {"OBJECT_NAME": "GPS BIIF-12 (PRN 32)", "OBJECT_ID": "2016-007A", "EPOCH": "2025-12-01T22:09:54.041760", "MEAN_MOTION": 2.0056114, "ECCENTRICITY": 0.00916487, "INCLINATION": 55.3999, "RA_OF_ASC_NODE": 97.2864, "ARG_OF_PERICENTER": 243.3101, "MEAN_ANOMALY": 115.7282, "EPHEMERIS_TYPE": 0, "CLASSIFICATION_TYPE": "U", "NORAD_CAT_ID": 41328, "ELEMENT_SET_NO": 999, "REV_AT_EPOCH": 7188, "BSTAR": 0, "MEAN_MOTION_DOT": 1.1e-07, "MEAN_MOTION_DDOT": 0}, "tle": {"line1": "1 41328U 16007A   25335.92354215  .00000011  00000+0  00000+0 0  9991", "line2": "2 41328  55.3999  97.2864 0091648 243.3101 115.7282  2.00561140 71887"}}, "geometry": {"type": "Point", "coordinates": [-136.26080545068058, 49.359145536299025]}}, {"type": "Feature", "properties": {"norad_id": 41330, "name": "COSMOS 2514 (751)", "group": "gnss", "lat": -17.78849358104736, "lon": -48.847315550545524, "alt_km": 19148.70963095642, "timestamp": "2025-12-03T13:52:09.804274+00:00", "meta": {"OBJECT_NAME": "COSMOS 2514 (751)", "OBJECT_ID": "2016-008A", "EPOCH": "2025-12-02T04:41:58.161984", "MEAN_MOTION": 2.13102491, "ECCENTRICITY": 0.00124931, "INCLINATION": 65.1398, "RA_OF_ASC_NODE": 319.7653, "ARG_OF_PERICENTER": 219.8518, "MEAN_ANOMALY": 140.0636, "EPHEMERIS_TYPE": 0, "CLASSIFICATION_TYPE": "U", "NORAD_CAT_ID": 41330, "ELEMENT_SET_NO": 999, "REV_AT_EPOCH": 7642, "BSTAR": 0, "MEAN_MOTION_DOT": -3.3e-07, "MEAN_MOTION_DDOT": 0}, "tle": {"line1": "1 41330U 16008A   25336.19581206 -.00000033  00000+0  00000+0 0  9992", "line2": "2 41330  65.1398 319.7653 0012493 219.8518 140.0636  2.13102491 76424"}}, "geometry": {"type": "Point", "coordinates": [-48.847315550545524, -17.78849358104736]}}, {"type": "Feature", "properties": {"norad_id": 41384, "name": "IRNSS-1F", "group": "gnss", "lat": -2.5574671021660023, "lon": -46.86800824432916, "alt_km": 35707.5804408601, "timestamp": "2025-12-03T13:52:09.804286+00:00", "meta": {"OBJECT_NAME": "IRNSS-1F", "OBJECT_ID": "2016-015A", "EPOCH": "2025-12-03T01:55:20.988192", "MEAN_MOTION": 1.00267525, "ECCENTRICITY": 0.00224023, "INCLINATION": 4.8561, "RA_OF_ASC_NODE": 101.5395, "ARG_OF_PERICENTER": 179.5147, "MEAN_ANOMALY": 212.3606, "EPHEMERIS_TYPE": 0, "CLASSIFICATION_TYPE": "U", "NORAD_CAT_ID": 41384, "ELEMENT_SET_NO": 999, "REV_AT_EPOCH": 3570, "BSTAR": 0, "MEAN_MOTION_DOT": 1.77e-06, "MEAN_MOTION_DDOT": 0}, "tle": {"line1": "1 41384U 16015A   25337.08010403  .00000177  00000+0  00000+0 0  9992", "line2": "2 41384   4.8561 101.5395 0022402 179.5147 212.3606  1.00267525 35707"}}, "geometry": {"type": "Point", "coordinates": [-46.86800824432916, -2.5574671021660023]}}, {"type": "Feature", "properties": {"norad_id": 41434, "name": "BEIDOU-2 IGSO-6 (C13)", "group": "gnss", "lat": -23.00326639177758, "lon": 25.82817127584413, "alt_km": 35844.67620690973, "timestamp": "2025-12-03T13:52:09.804298+00:00", "meta": {"OBJECT_NAME": "BEIDOU-2 IGSO-6 (C13)", "OBJECT_ID": "2016-021A", "EPOCH": "2025-12-01T15:57:35.287200", "MEAN_MOTION": 1.00256562, "ECCENTRICITY": 0.00591323, "INCLINATION": 59.9483, "RA_OF_ASC_NODE": 40.0119, "ARG_OF_PERICENTER": 231.2834, "MEAN_ANOMALY": 130.8807, "EPHEMERIS_TYPE": 0, "CLASSIFICATION_TYPE": "U", "NORAD_CAT_ID": 41434, "ELEMENT_SET_NO": 999, "REV_AT_EPOCH": 3550, "BSTAR": 0, "MEAN_MOTION_DOT": -1.55e-06, "MEAN_MOTION_DDOT": 0}, "tle": {"line1": "1 41434U 16021A   25335.66499175 -.00000155  00000+0  00000+0 0  9991", "line2": "2 41434  59.9483  40.0119 0059132 231.2834 130.8807  1.00256562 35501"}}, "geometry": {"type": "Point", "coordinates": [25.82817127584413, -23.00326639177758]}}, {"type": "Feature", "properties": {"norad_id": 41469, "name": "IRNSS-1G", "group": "gnss", "lat": -3.6943917223389975, "lon": 50.234994995715, "alt_km": 35785.95108467845, "timestamp": "2025-12-03T13:52:09.804309+00:00", "meta": {"OBJECT_NAME": "IRNSS-1G", "OBJECT_ID": "2016-027A", "EPOCH": "2025-12-03T07:31:19.049952", "MEAN_MOTION": 1.00266124, "ECCENTRICITY": 0.00013959, "INCLINATION": 4.7136, "RA_OF_ASC_NODE": 102.3315, "ARG_OF_PERICENTER": 15.6399, "MEAN_ANOMALY": 196.7364, "EPHEMERIS_TYPE": 0, "CLASSIFICATION_TYPE": "U", "NORAD_CAT_ID": 41469, "ELEMENT_SET_NO": 999, "REV_AT_EPOCH": 3521, "BSTAR": 0, "MEAN_MOTION_DOT": -3.17e-06, "MEAN_MOTION_DDOT": 0}, "tle": {"line1": "1 41469U 16027A   25337.31341493 -.00000317  00000+0  00000+0 0  9998", "line2": "2 41469   4.7136 102.3315 0001395  15.6399 196.7364  1.00266124 35212"}}, "geometry": {"type": "Point", "coordinates": [50.234994995715, -3.6943917223389975]}}]}